PROGRESS-MS 32          
1 65586U 25204A   25334.86664352  .00008450  00000+0  16017-3 0  9994
2 65586  51.6312 201.2569 0003670 188.2523 171.8406 15.49213294   276
CYGNUS NG-23            
1 65616U 25208A   25334.86664352  .00008450  00000+0  16017-3 0  9992
2 65616  51.6312 201.2569 0003670 188.2523 171.8406 15.49213294   225
DRAGONFLY               
1 65729U 98067XH  25334.06728159  .00136962  00000+0  12301-2 0  9999
2 65729  51.6265 200.4173 0006450 201.2290 158.8439 15.67290907 11178
1998-067XJ              
1 65730U 98067XJ  25334.78087973  .02083121  36478-2  26017-2 0  9992
2 65730  51.6135 191.6004 0011095 229.1502 130.8550 16.07771346 11356
1998-067XK              
1 65731U 98067XK  25334.91590408  .00081683  00000+0  87750-3 0  9990
2 65731  51.6291 197.0935 0006007 179.7120 180.3878 15.63033080 11299
RSP-03                  
1 65732U 98067XL  25334.87562137  .00099945  00000+0  98419-3 0  9998
2 65732  51.6283 196.8178 0006791 181.8447 178.2524 15.65146342 11307
GHS-01                  
1 65733U 98067XM  25334.86532097  .00152560  00000+0  12550-2 0  9994
2 65733  51.6284 196.0016 0006970 204.6626 155.4039 15.69376906 11318
YOTSUBA-KULOVER         
1 65941U 98067XN  25334.65708087  .00061488  00000+0  82227-3 0  9993
2 65941  51.6287 200.6120 0002290 155.0947 205.0156 15.57435504  7972
BOTAN                   
1 65942U 98067XP  25334.87727141  .00086315  00000+0  10450-2 0  9994
2 65942  51.6293 199.0826 0004559 160.6906 199.4260 15.59920682  8017
E-KAGAKU-1              
1 65943U 98067XQ  25334.84937698  .00058750  00000+0  78628-3 0  9996
2 65943  51.6303 199.6478 0003700 138.7651 221.3622 15.57429478  8000
HRC MONOBLOCK CAMERA    
1 66052U 98067XR  25334.87952777  .00034063  00000+0  54062-3 0  9993
2 66052  51.6303 200.5923 0004563 136.5709 223.5641 15.53023283  6998
HTV-X1                  
1 66174U 25241A   25334.86664352  .00008450  00000+0  16017-3 0  9999
2 66174  51.6312 201.2569 0003670 188.2523 171.8406 15.49213294   517
