CCSDS_OMM_VERS = 2.0
CREATION_DATE  = 
ORIGINATOR     = 

OBJECT_NAME    = PROGRESS-MS 32
OBJECT_ID      = 2025-204A
CENTER_NAME    = EARTH
REF_FRAME      = TEME
TIME_SYSTEM    = UTC
MEAN_ELEMENT_THEORY = SGP/SGP4

EPOCH          = 2025-11-30T20:47:58.000128
MEAN_MOTION    = 15.49213294
ECCENTRICITY   = .00036702
INCLINATION    = 51.6312
RA_OF_ASC_NODE = 201.2569
ARG_OF_PERICENTER = 188.2523
MEAN_ANOMALY   = 171.8406

EPHEMERIS_TYPE = 0
CLASSIFICATION_TYPE = U
NORAD_CAT_ID   = 65586
ELEMENT_SET_NO = 999
REV_AT_EPOCH   = 27
BSTAR          = .16017013E-3
MEAN_MOTION_DOT = .845E-4
MEAN_MOTION_DDOT = 0

CCSDS_OMM_VERS = 2.0
CREATION_DATE  = 
ORIGINATOR     = 

OBJECT_NAME    = CYGNUS NG-23
OBJECT_ID      = 2025-208A
CENTER_NAME    = EARTH
REF_FRAME      = TEME
TIME_SYSTEM    = UTC
MEAN_ELEMENT_THEORY = SGP/SGP4

EPOCH          = 2025-11-30T20:47:58.000128
MEAN_MOTION    = 15.49213294
ECCENTRICITY   = .00036702
INCLINATION    = 51.6312
RA_OF_ASC_NODE = 201.2569
ARG_OF_PERICENTER = 188.2523
MEAN_ANOMALY   = 171.8406

EPHEMERIS_TYPE = 0
CLASSIFICATION_TYPE = U
NORAD_CAT_ID   = 65616
ELEMENT_SET_NO = 999
REV_AT_EPOCH   = 22
BSTAR          = .16017013E-3
MEAN_MOTION_DOT = .845E-4
MEAN_MOTION_DDOT = 0

CCSDS_OMM_VERS = 2.0
CREATION_DATE  = 
ORIGINATOR     = 

OBJECT_NAME    = DRAGONFLY
OBJECT_ID      = 1998-067XH
CENTER_NAME    = EARTH
REF_FRAME      = TEME
TIME_SYSTEM    = UTC
MEAN_ELEMENT_THEORY = SGP/SGP4

EPOCH          = 2025-11-30T01:36:53.129376
MEAN_MOTION    = 15.67290907
ECCENTRICITY   = .00064505
INCLINATION    = 51.6265
RA_OF_ASC_NODE = 200.4173
ARG_OF_PERICENTER = 201.2290
MEAN_ANOMALY   = 158.8439

EPHEMERIS_TYPE = 0
CLASSIFICATION_TYPE = U
NORAD_CAT_ID   = 65729
ELEMENT_SET_NO = 999
REV_AT_EPOCH   = 1117
BSTAR          = .12301051E-2
MEAN_MOTION_DOT = .136962E-2
MEAN_MOTION_DDOT = 0

CCSDS_OMM_VERS = 2.0
CREATION_DATE  = 
ORIGINATOR     = 

OBJECT_NAME    = 1998-067XJ
OBJECT_ID      = 1998-067XJ
CENTER_NAME    = EARTH
REF_FRAME      = TEME
TIME_SYSTEM    = UTC
MEAN_ELEMENT_THEORY = SGP/SGP4

EPOCH          = 2025-11-30T18:44:28.008672
MEAN_MOTION    = 16.07771346
ECCENTRICITY   = .00110958
INCLINATION    = 51.6135
RA_OF_ASC_NODE = 191.6004
ARG_OF_PERICENTER = 229.1502
MEAN_ANOMALY   = 130.8550

EPHEMERIS_TYPE = 0
CLASSIFICATION_TYPE = U
NORAD_CAT_ID   = 65730
ELEMENT_SET_NO = 999
REV_AT_EPOCH   = 1135
BSTAR          = .26017019E-2
MEAN_MOTION_DOT = .2083121E-1
MEAN_MOTION_DDOT = .36478294E-2

CCSDS_OMM_VERS = 2.0
CREATION_DATE  = 
ORIGINATOR     = 

OBJECT_NAME    = 1998-067XK
OBJECT_ID      = 1998-067XK
CENTER_NAME    = EARTH
REF_FRAME      = TEME
TIME_SYSTEM    = UTC
MEAN_ELEMENT_THEORY = SGP/SGP4

EPOCH          = 2025-11-30T21:58:54.112512
MEAN_MOTION    = 15.63033080
ECCENTRICITY   = .00060078
INCLINATION    = 51.6291
RA_OF_ASC_NODE = 197.0935
ARG_OF_PERICENTER = 179.7120
MEAN_ANOMALY   = 180.3878

EPHEMERIS_TYPE = 0
CLASSIFICATION_TYPE = U
NORAD_CAT_ID   = 65731
ELEMENT_SET_NO = 999
REV_AT_EPOCH   = 1129
BSTAR          = .87750276E-3
MEAN_MOTION_DOT = .81683E-3
MEAN_MOTION_DDOT = 0

CCSDS_OMM_VERS = 2.0
CREATION_DATE  = 
ORIGINATOR     = 

OBJECT_NAME    = RSP-03
OBJECT_ID      = 1998-067XL
CENTER_NAME    = EARTH
REF_FRAME      = TEME
TIME_SYSTEM    = UTC
MEAN_ELEMENT_THEORY = SGP/SGP4

EPOCH          = 2025-11-30T21:00:53.686368
MEAN_MOTION    = 15.65146342
ECCENTRICITY   = .00067911
INCLINATION    = 51.6283
RA_OF_ASC_NODE = 196.8178
ARG_OF_PERICENTER = 181.8447
MEAN_ANOMALY   = 178.2524

EPHEMERIS_TYPE = 0
CLASSIFICATION_TYPE = U
NORAD_CAT_ID   = 65732
ELEMENT_SET_NO = 999
REV_AT_EPOCH   = 1130
BSTAR          = .98419126E-3
MEAN_MOTION_DOT = .99945E-3
MEAN_MOTION_DDOT = 0

CCSDS_OMM_VERS = 2.0
CREATION_DATE  = 
ORIGINATOR     = 

OBJECT_NAME    = GHS-01
OBJECT_ID      = 1998-067XM
CENTER_NAME    = EARTH
REF_FRAME      = TEME
TIME_SYSTEM    = UTC
MEAN_ELEMENT_THEORY = SGP/SGP4

EPOCH          = 2025-11-30T20:46:03.731808
MEAN_MOTION    = 15.69376906
ECCENTRICITY   = .00069708
INCLINATION    = 51.6284
RA_OF_ASC_NODE = 196.0016
ARG_OF_PERICENTER = 204.6626
MEAN_ANOMALY   = 155.4039

EPHEMERIS_TYPE = 0
CLASSIFICATION_TYPE = U
NORAD_CAT_ID   = 65733
ELEMENT_SET_NO = 999
REV_AT_EPOCH   = 1131
BSTAR          = .1254978E-2
MEAN_MOTION_DOT = .15256E-2
MEAN_MOTION_DDOT = 0

CCSDS_OMM_VERS = 2.0
CREATION_DATE  = 
ORIGINATOR     = 

OBJECT_NAME    = YOTSUBA-KULOVER
OBJECT_ID      = 1998-067XN
CENTER_NAME    = EARTH
REF_FRAME      = TEME
TIME_SYSTEM    = UTC
MEAN_ELEMENT_THEORY = SGP/SGP4

EPOCH          = 2025-11-30T15:46:11.787168
MEAN_MOTION    = 15.57435504
ECCENTRICITY   = .00022902
INCLINATION    = 51.6287
RA_OF_ASC_NODE = 200.6120
ARG_OF_PERICENTER = 155.0947
MEAN_ANOMALY   = 205.0156

EPHEMERIS_TYPE = 0
CLASSIFICATION_TYPE = U
NORAD_CAT_ID   = 65941
ELEMENT_SET_NO = 999
REV_AT_EPOCH   = 797
BSTAR          = .82227467E-3
MEAN_MOTION_DOT = .61488E-3
MEAN_MOTION_DDOT = 0

CCSDS_OMM_VERS = 2.0
CREATION_DATE  = 
ORIGINATOR     = 

OBJECT_NAME    = BOTAN
OBJECT_ID      = 1998-067XP
CENTER_NAME    = EARTH
REF_FRAME      = TEME
TIME_SYSTEM    = UTC
MEAN_ELEMENT_THEORY = SGP/SGP4

EPOCH          = 2025-11-30T21:03:16.249824
MEAN_MOTION    = 15.59920682
ECCENTRICITY   = .00045597
INCLINATION    = 51.6293
RA_OF_ASC_NODE = 199.0826
ARG_OF_PERICENTER = 160.6906
MEAN_ANOMALY   = 199.4260

EPHEMERIS_TYPE = 0
CLASSIFICATION_TYPE = U
NORAD_CAT_ID   = 65942
ELEMENT_SET_NO = 999
REV_AT_EPOCH   = 801
BSTAR          = .1044992E-2
MEAN_MOTION_DOT = .86315E-3
MEAN_MOTION_DDOT = 0

CCSDS_OMM_VERS = 2.0
CREATION_DATE  = 
ORIGINATOR     = 

OBJECT_NAME    = E-KAGAKU-1
OBJECT_ID      = 1998-067XQ
CENTER_NAME    = EARTH
REF_FRAME      = TEME
TIME_SYSTEM    = UTC
MEAN_ELEMENT_THEORY = SGP/SGP4

EPOCH          = 2025-11-30T20:23:06.171072
MEAN_MOTION    = 15.57429478
ECCENTRICITY   = .00037009
INCLINATION    = 51.6303
RA_OF_ASC_NODE = 199.6478
ARG_OF_PERICENTER = 138.7651
MEAN_ANOMALY   = 221.3622

EPHEMERIS_TYPE = 0
CLASSIFICATION_TYPE = U
NORAD_CAT_ID   = 65943
ELEMENT_SET_NO = 999
REV_AT_EPOCH   = 800
BSTAR          = .78628329E-3
MEAN_MOTION_DOT = .5875E-3
MEAN_MOTION_DDOT = 0

CCSDS_OMM_VERS = 2.0
CREATION_DATE  = 
ORIGINATOR     = 

OBJECT_NAME    = HRC MONOBLOCK CAMERA
OBJECT_ID      = 1998-067XR
CENTER_NAME    = EARTH
REF_FRAME      = TEME
TIME_SYSTEM    = UTC
MEAN_ELEMENT_THEORY = SGP/SGP4

EPOCH          = 2025-11-30T21:06:31.199328
MEAN_MOTION    = 15.53023283
ECCENTRICITY   = .00045633
INCLINATION    = 51.6303
RA_OF_ASC_NODE = 200.5923
ARG_OF_PERICENTER = 136.5709
MEAN_ANOMALY   = 223.5641

EPHEMERIS_TYPE = 0
CLASSIFICATION_TYPE = U
NORAD_CAT_ID   = 66052
ELEMENT_SET_NO = 999
REV_AT_EPOCH   = 699
BSTAR          = .54062248E-3
MEAN_MOTION_DOT = .34063E-3
MEAN_MOTION_DDOT = 0

CCSDS_OMM_VERS = 2.0
CREATION_DATE  = 
ORIGINATOR     = 

OBJECT_NAME    = HTV-X1
OBJECT_ID      = 2025-241A
CENTER_NAME    = EARTH
REF_FRAME      = TEME
TIME_SYSTEM    = UTC
MEAN_ELEMENT_THEORY = SGP/SGP4

EPOCH          = 2025-11-30T20:47:58.000128
MEAN_MOTION    = 15.49213294
ECCENTRICITY   = .00036702
INCLINATION    = 51.6312
RA_OF_ASC_NODE = 201.2569
ARG_OF_PERICENTER = 188.2523
MEAN_ANOMALY   = 171.8406

EPHEMERIS_TYPE = 0
CLASSIFICATION_TYPE = U
NORAD_CAT_ID   = 66174
ELEMENT_SET_NO = 999
REV_AT_EPOCH   = 51
BSTAR          = .16017013E-3
MEAN_MOTION_DOT = .845E-4
MEAN_MOTION_DDOT = 0

